{
  "features" : [ {
    "geometry" : {
      "coordinates" : [ 43.3333, 12.5833 ],
      "type" : "Point"
    },
    "properties" : {
      "baseline-max" : 75.0,
      "baseline-median" : 56.0,
      "baseline-min" : 26.0,
      "baseline-n" : 7,
      "baseline-policy-issue" : 3,
      "baseline-q25" : 48.5,
      "baseline-q75" : 71.0,
      "baseline-status" : "provisional-observed-history",
      "capacity-total" : 1133173,
      "chokepoint" : "bab-el-mandeb",
      "date" : "2026-10-04",
      "date-ms" : 1791072000000,
      "deviation-absolute" : -22.0,
      "deviation-percent" : -39.285714285714285,
      "geometry-note" : "Approximate reference anchor for visualization; not a legal or navigational boundary.",
      "latest" : true,
      "port-id" : "chokepoint4",
      "port-name" : "Bab el-Mandeb Strait",
      "source-record-id" : 11037,
      "vessels-cargo" : 23,
      "vessels-container" : 9,
      "vessels-dry-bulk" : 9,
      "vessels-general-cargo" : 5,
      "vessels-roro" : 0,
      "vessels-tanker" : 11,
      "vessels-total" : 34
    },
    "type" : "Feature"
  }, {
    "geometry" : {
      "coordinates" : [ 56.25, 26.5667 ],
      "type" : "Point"
    },
    "properties" : {
      "baseline-max" : 118.0,
      "baseline-median" : 89.0,
      "baseline-min" : 49.0,
      "baseline-n" : 7,
      "baseline-policy-issue" : 3,
      "baseline-q25" : 83.5,
      "baseline-q75" : 103.5,
      "baseline-status" : "provisional-observed-history",
      "capacity-total" : 81884,
      "chokepoint" : "hormuz",
      "date" : "2026-10-04",
      "date-ms" : 1791072000000,
      "deviation-absolute" : -85.0,
      "deviation-percent" : -95.50561797752809,
      "geometry-note" : "Approximate reference anchor for visualization; not a legal or navigational boundary.",
      "latest" : true,
      "port-id" : "chokepoint6",
      "port-name" : "Strait of Hormuz",
      "source-record-id" : 16241,
      "vessels-cargo" : 4,
      "vessels-container" : 1,
      "vessels-dry-bulk" : 2,
      "vessels-general-cargo" : 1,
      "vessels-roro" : 0,
      "vessels-tanker" : 0,
      "vessels-total" : 4
    },
    "type" : "Feature"
  } ],
  "river-city/generated-at" : "2026-10-06T18:26:54.407123162Z",
  "river-city/geometry-status" : "approximate-reference-anchors",
  "type" : "FeatureCollection"
}
